RISAT-2BR2              
1 46905U 20081A   26068.52426450  .00004901  00000+0  37609-3 0  9996
2 46905  36.8980  95.9121 0010905  52.9142 307.2595 15.01602463292489
STARLINK-4368           
1 53234U 22084AX  26068.71625589  .00000600  00000+0  51278-4 0  9990
2 53234  97.6053 130.2359 0000892 123.5095 236.6214 15.01259518200335
